ORBCOMM FM37            
1 33064U 08031E   24359.53413715  .00003936  00000+0  56138-3 0  9996
2 33064  48.4391  93.2411 0006153 333.6620  95.0112 14.78507908888196
ORBCOMM FM40            
1 33065U 08031F   24359.77710008  .00005852  00000+0  78458-3 0  9996
2 33065  48.4416  78.8363 0007416 346.5934 164.5487 14.80412010888744
VESSELSAT 1             
1 37840U 11058C   24359.53523187  .00000509  00000+0  13319-3 0  9997
2 37840  19.9625  70.6525 0013818  65.5182 294.6663 14.11282504681604
ORBCOMM FM109           
1 40086U 14040A   24359.77428715  .00002250  00000+0  52673-3 0  9995
2 40086  47.0019 119.6856 0002697 257.9123 102.1460 14.57517054555738
ORBCOMM FM107           
1 40087U 14040B   24359.60564507  .00001915  00000+0  45266-3 0  9995
2 40087  47.0047 121.5127 0002131 224.2216 135.8499 14.57657607555662
ORBCOMM FM106           
1 40088U 14040C   24359.58185819  .00003446  00000+0  61810-3 0  9992
2 40088  47.0606 317.5522 0017863 335.4550  24.5489 14.68552042557804
ORBCOMM FM111           
1 40089U 14040D   24359.82505861  .00006789  00000+0  81467-3 0  9996
2 40089  47.0005 189.5334 0030061  80.3135 280.1155 14.84497349564305
ORBCOMM FM104           
1 40090U 14040E   24359.81741435  .00001988  00000+0  48379-3 0  9997
2 40090  47.0039 152.0613 0016331 131.3119 228.9174 14.56106843555308
